ONEWEB-0195             
1 48240U 21031AG  23318.75090549  .00000158  00000+0  39285-3 0  9994
2 48240  87.8953 117.8850 0001367 112.5278 247.5996 13.14503685123940
ONEWEB-0201             
1 48241U 21031AH  23318.74773485  .00000270  00000+0  69487-3 0  9993
2 48241  87.8942 117.9209 0001549  97.5849 262.5457 13.14501199124179
ONEWEB-0207             
1 48242U 21031AJ  23318.87618825 -.00000089  00000+0 -27514-3 0  9999
2 48242  87.8942 117.8636 0001731  95.8525 264.2802 13.14501477124103
ONEWEB-0208             
1 48243U 21031AK  23318.47258990 -.00000169  00000+0 -49080-3 0  9990
2 48243  87.8941 117.9589 0001419 103.1546 256.9742 13.14496610124068
ONEWEB-0200             
1 48244U 21031AL  23318.74058704  .00000290  00000+0  74798-3 0  9999
2 48244  87.8950 117.8991 0001400 102.7534 257.3753 13.14503396124020
ONEWEB-0217             
1 48245U 21031AM  23318.68034004  .00000182  00000+0  45602-3 0  9992
2 48245  87.8952 117.8956 0001255 107.2827 252.8440 13.14502328123966
ONEWEB-0211             
1 48767U 21045A   23318.77847504 -.00000111  00000+0 -32962-3 0  9992
2 48767  87.8982  87.3914 0001549 100.5211 259.6094 13.15549054120114
ONEWEB-0223             
1 48768U 21045B   23318.64854494  .00000148  00000+0  35867-3 0  9990
2 48768  87.8978  87.4209 0001114 105.6457 254.4797 13.15550457120082
